start=new Date('2022-02-19T00:00:00.000Z').valueOf();
sats=[{"APOAPSIS":"548.134","OBJECT_NAME":"STARLINK-2127","TLE_LINE1":"1 47403U 21005BG  22049.82382567 -.00001217  00000-0 -62865-4 0  9998","DECAY_DATE":null,"ARG_OF_PERICENTER":"71.4617","NORAD_CAT_ID":"47403","COUNTRY_CODE":"US","ECCENTRICITY":"0.00012830","EPHEMERIS_TYPE":"0","CLASSIFICATION_TYPE":"U","FILE":"3307132","BSTAR":"-0.00006286500000","CENTER_NAME":"EARTH","MEAN_MOTION_DDOT":"0.0000000000000","LAUNCH_DATE":"2021-01-20","TIME_SYSTEM":"UTC","PERIAPSIS":"546.357","ELEMENT_SET_NO":"999","GP_ID":"196334016","REF_FRAME":"TEME","EPOCH":"2022-02-18T19:46:18.537888","TLE_LINE2":"2 47403  53.0536 195.0038 0001283  71.4617 288.6512 15.06389513 60412","MEAN_ANOMALY":"288.6512","REV_AT_EPOCH":"6041","OBJECT_ID":"2021-005BG","MEAN_MOTION_DOT":"-0.00001217","MEAN_ELEMENT_THEORY":"SGP4","INCLINATION":"53.0536","OBJECT_TYPE":"PAYLOAD","RCS_SIZE":"LARGE","SEMIMAJOR_AXIS":"6925.381","SITE":"AFETR","RA_OF_ASC_NODE":"195.0038","MEAN_MOTION":"15.06389513","PERIOD":"95.593"},{"MEAN_MOTION":"15.06406073","PERIOD":"95.592","RA_OF_ASC_NODE":"195.0199","SITE":"AFETR","RCS_SIZE":"LARGE","SEMIMAJOR_AXIS":"6925.330","INCLINATION":"53.0542","OBJECT_TYPE":"PAYLOAD","MEAN_ELEMENT_THEORY":"SGP4","MEAN_MOTION_DOT":"0.00000453","OBJECT_ID":"2021-005BH","REV_AT_EPOCH":"6041","MEAN_ANOMALY":"289.3014","TLE_LINE2":"2 47404  53.0542 195.0199 0001575  70.8146 289.3014 15.06406073 60418","EPOCH":"2022-02-18T19:40:58.271232","REF_FRAME":"TEME","GP_ID":"196332268","ELEMENT_SET_NO":"999","PERIAPSIS":"546.104","TIME_SYSTEM":"UTC","LAUNCH_DATE":"2021-01-20","MEAN_MOTION_DDOT":"0.0000000000000","CENTER_NAME":"EARTH","FILE":"3307132","CLASSIFICATION_TYPE":"U","BSTAR":"0.00004933100000","ECCENTRICITY":"0.00015750","COUNTRY_CODE":"US","NORAD_CAT_ID":"47404","EPHEMERIS_TYPE":"0","DECAY_DATE":null,"ARG_OF_PERICENTER":"70.8146","OBJECT_NAME":"STARLINK-2128","TLE_LINE1":"1 47404U 21005BH  22049.82011888  .00000453  00000-0  49331-4 0  9996","APOAPSIS":"548.286"},{"GP_ID":"196332518","REF_FRAME":"TEME","EPOCH":"2022-02-18T20:51:18.347904","TLE_LINE2":"2 47405  53.0525 224.7895 0001771  68.3680 291.7497 15.06404659 59997","MEAN_ANOMALY":"291.7497","REV_AT_EPOCH":"5999","OBJECT_ID":"2021-005BJ","MEAN_ELEMENT_THEORY":"SGP4","MEAN_MOTION_DOT":"0.00001744","OBJECT_TYPE":"PAYLOAD","INCLINATION":"53.0525","SEMIMAJOR_AXIS":"6925.334","RCS_SIZE":"LARGE","SITE":"AFETR","RA_OF_ASC_NODE":"224.7895","PERIOD":"95.592","MEAN_MOTION":"15.06404659","APOAPSIS":"548.426","TLE_LINE1":"1 47405U 21005BJ  22049.86896236  .00001744  00000-0  13592-3 0  9992","OBJECT_NAME":"STARLINK-2130","ARG_OF_PERICENTER":"68.3680","DECAY_DATE":null,"EPHEMERIS_TYPE":"0","COUNTRY_CODE":"US","ECCENTRICITY":"0.00017710","NORAD_CAT_ID":"47405","BSTAR":"0.00013592000000","FILE":"3307132","CLASSIFICATION_TYPE":"U","CENTER_NAME":"EARTH","MEAN_MOTION_DDOT":"0.0000000000000","LAUNCH_DATE":"2021-01-20","TIME_SYSTEM":"UTC","PERIAPSIS":"545.973","ELEMENT_SET_NO":"999"},{"GP_ID":"196333769","REF_FRAME":"TEME","EPOCH":"2022-02-18T19:56:54.286368","TLE_LINE2":"2 47406  53.0551 194.9604 0001231  97.5778 262.5351 15.06395155 60410","OBJECT_ID":"2021-005BK","MEAN_ANOMALY":"262.5351","REV_AT_EPOCH":"6041","MEAN_MOTION_DOT":"0.00000644","MEAN_ELEMENT_THEORY":"SGP4","SEMIMAJOR_AXIS":"6925.363","RCS_SIZE":"LARGE","OBJECT_TYPE":"PAYLOAD","INCLINATION":"53.0551","RA_OF_ASC_NODE":"194.9604","SITE":"AFETR","PERIOD":"95.592","MEAN_MOTION":"15.06395155","TLE_LINE1":"1 47406U 21005BK  22049.83118387  .00000644  00000-0  62135-4 0  9990","OBJECT_NAME":"STARLINK-2133","APOAPSIS":"548.081","EPHEMERIS_TYPE":"0","COUNTRY_CODE":"US","ECCENTRICITY":"0.00012310","NORAD_CAT_ID":"47406","ARG_OF_PERICENTER":"97.5778","DECAY_DATE":null,"CENTER_NAME":"EARTH","CLASSIFICATION_TYPE":"U","FILE":"3307132","BSTAR":"0.00006213500000","LAUNCH_DATE":"2021-01-20","MEAN_MOTION_DDOT":"0.0000000000000","TIME_SYSTEM":"UTC","PERIAPSIS":"546.376","ELEMENT_SET_NO":"999"},{"TLE_LINE2":"2 47407  53.0534 194.9380 0001451  57.6165 302.4964 15.06388095 60413","OBJECT_ID":"2021-005BL","MEAN_ANOMALY":"302.4964","REV_AT_EPOCH":"6041","GP_ID":"196333517","REF_FRAME":"TEME","EPOCH":"2022-02-18T20:07:31.355040","RA_OF_ASC_NODE":"194.9380","SITE":"AFETR","MEAN_MOTION":"15.06388095","PERIOD":"95.593","MEAN_MOTION_DOT":"-0.00000011","MEAN_ELEMENT_THEORY":"SGP4","RCS_SIZE":"LARGE","SEMIMAJOR_AXIS":"6925.385","INCLINATION":"53.0534","OBJECT_TYPE":"PAYLOAD","CENTER_NAME":"EARTH","CLASSIFICATION_TYPE":"U","FILE":"3307132","BSTAR":"0.00001818500000","OBJECT_NAME":"STARLINK-2134","TLE_LINE1":"1 47407U 21005BL  22049.83855735 -.00000011  00000-0  18185-4 0  9991","APOAPSIS":"548.255","NORAD_CAT_ID":"47407","COUNTRY_CODE":"US","ECCENTRICITY":"0.00014510","EPHEMERIS_TYPE":"0","DECAY_DATE":null,"ARG_OF_PERICENTER":"57.6165","PERIAPSIS":"546.245","ELEMENT_SET_NO":"999","LAUNCH_DATE":"2021-01-20","MEAN_MOTION_DDOT":"0.0000000000000","TIME_SYSTEM":"UTC"},{"EPOCH":"2022-02-18T19:25:03.014688","GP_ID":"196332768","REF_FRAME":"TEME","MEAN_ANOMALY":"292.6005","REV_AT_EPOCH":"6041","OBJECT_ID":"2021-005BM","TLE_LINE2":"2 47408  53.0551 195.0607 0001514  67.5144 292.6005 15.06405554 60410","OBJECT_TYPE":"PAYLOAD","INCLINATION":"53.0551","SEMIMAJOR_AXIS":"6925.332","RCS_SIZE":"LARGE","MEAN_ELEMENT_THEORY":"SGP4","MEAN_MOTION_DOT":"0.00000413","PERIOD":"95.592","MEAN_MOTION":"15.06405554","SITE":"AFETR","RA_OF_ASC_NODE":"195.0607","DECAY_DATE":null,"ARG_OF_PERICENTER":"67.5144","EPHEMERIS_TYPE":"0","NORAD_CAT_ID":"47408","COUNTRY_CODE":"US","ECCENTRICITY":"0.00015140","APOAPSIS":"548.245","TLE_LINE1":"1 47408U 21005BM  22049.80906267  .00000413  00000-0  46647-4 0  9995","OBJECT_NAME":"STARLINK-2135","FILE":"3307132","CLASSIFICATION_TYPE":"U","BSTAR":"0.00004664700000","CENTER_NAME":"EARTH","TIME_SYSTEM":"UTC","MEAN_MOTION_DDOT":"0.0000000000000","LAUNCH_DATE":"2021-01-20","ELEMENT_SET_NO":"999","PERIAPSIS":"546.148"},{"EPOCH":"2022-02-18T19:33:01.067616","GP_ID":"196332534","REF_FRAME":"TEME","MEAN_ANOMALY":"300.2011","REV_AT_EPOCH":"5788","OBJECT_ID":"2021-009A","TLE_LINE2":"2 47548  53.0530 175.0450 0001242  59.9101 300.2011 15.06401644 57888","INCLINATION":"53.0530","OBJECT_TYPE":"PAYLOAD","RCS_SIZE":"LARGE","SEMIMAJOR_AXIS":"6925.344","MEAN_ELEMENT_THEORY":"SGP4","MEAN_MOTION_DOT":"0.00001209","MEAN_MOTION":"15.06401644","PERIOD":"95.592","SITE":"AFETR","RA_OF_ASC_NODE":"175.0450","DECAY_DATE":null,"ARG_OF_PERICENTER":"59.9101","COUNTRY_CODE":"US","ECCENTRICITY":"0.00012420","NORAD_CAT_ID":"47548","EPHEMERIS_TYPE":"0","APOAPSIS":"548.069","OBJECT_NAME":"STARLINK-1782","TLE_LINE1":"1 47548U 21009A   22049.81459569  .00001209  00000-0  10002-3 0  9992","BSTAR":"0.00010002000000","FILE":"3307132","CLASSIFICATION_TYPE":"U","CENTER_NAME":"EARTH","TIME_SYSTEM":"UTC","MEAN_MOTION_DDOT":"0.0000000000000","LAUNCH_DATE":"2021-02-04","ELEMENT_SET_NO":"999","PERIAPSIS":"546.348"},{"TLE_LINE1":"1 47549U 21009B   22049.74456726  .00000539  00000-0  55102-4 0  9993","OBJECT_NAME":"STARLINK-1806","APOAPSIS":"548.186","EPHEMERIS_TYPE":"0","NORAD_CAT_ID":"47549","COUNTRY_CODE":"US","ECCENTRICITY":"0.00013720","DECAY_DATE":null,"ARG_OF_PERICENTER":"66.2148","CENTER_NAME":"EARTH","FILE":"3307132","BSTAR":"0.00005510200000","CLASSIFICATION_TYPE":"U","LAUNCH_DATE":"2021-02-04","MEAN_MOTION_DDOT":"0.0000000000000","TIME_SYSTEM":"UTC","PERIAPSIS":"546.286","ELEMENT_SET_NO":"999","REF_FRAME":"TEME","GP_ID":"196333785","EPOCH":"2022-02-18T17:52:10.611264","TLE_LINE2":"2 47549  53.0559 175.3577 0001372  66.2148 293.8985 15.06392628 57876","OBJECT_ID":"2021-009B","REV_AT_EPOCH":"5787","MEAN_ANOMALY":"293.8985","MEAN_ELEMENT_THEORY":"SGP4","MEAN_MOTION_DOT":"0.00000539","SEMIMAJOR_AXIS":"6925.371","RCS_SIZE":"LARGE","OBJECT_TYPE":"PAYLOAD","INCLINATION":"53.0559","RA_OF_ASC_NODE":"175.3577","SITE":"AFETR","PERIOD":"95.593","MEAN_MOTION":"15.06392628"},{"DECAY_DATE":null,"ARG_OF_PERICENTER":"67.3610","COUNTRY_CODE":"US","ECCENTRICITY":"0.00013290","NORAD_CAT_ID":"47550","EPHEMERIS_TYPE":"0","APOAPSIS":"548.156","OBJECT_NAME":"STARLINK-1909","TLE_LINE1":"1 47550U 21009C   22049.69019908 -.00001181  00000-0 -60449-4 0  9992","CLASSIFICATION_TYPE":"U","FILE":"3307132","BSTAR":"-0.00006044900000","CENTER_NAME":"EARTH","TIME_SYSTEM":"UTC","MEAN_MOTION_DDOT":"0.0000000000000","LAUNCH_DATE":"2021-02-04","ELEMENT_SET_NO":"999","PERIAPSIS":"546.316","EPOCH":"2022-02-18T16:33:53.200512","GP_ID":"196333533","REF_FRAME":"TEME","MEAN_ANOMALY":"292.7520","REV_AT_EPOCH":"5800","OBJECT_ID":"2021-009C","TLE_LINE2":"2 47550  53.0547 165.6064 0001329  67.3610 292.7520 15.06392656 58006","INCLINATION":"53.0547","OBJECT_TYPE":"PAYLOAD","RCS_SIZE":"LARGE","SEMIMAJOR_AXIS":"6925.371","MEAN_MOTION_DOT":"-0.00001181","MEAN_ELEMENT_THEORY":"SGP4","MEAN_MOTION":"15.06392656","PERIOD":"95.593","SITE":"AFETR","RA_OF_ASC_NODE":"165.6064"},{"TLE_LINE2":"2 47551  53.0551 185.6195 0001381  62.0155 298.0974 15.06400675 57724","OBJECT_ID":"2021-009D","MEAN_ANOMALY":"298.0974","REV_AT_EPOCH":"5772","REF_FRAME":"TEME","GP_ID":"196332784","EPOCH":"2022-02-18T16:25:55.308288","RA_OF_ASC_NODE":"185.6195","SITE":"AFETR","MEAN_MOTION":"15.06400675","PERIOD":"95.592","MEAN_MOTION_DOT":"0.00000620","MEAN_ELEMENT_THEORY":"SGP4","RCS_SIZE":"LARGE","SEMIMAJOR_AXIS":"6925.346","INCLINATION":"53.0551","OBJECT_TYPE":"PAYLOAD","CENTER_NAME":"EARTH","BSTAR":"0.00006054400000","FILE":"3307132","CLASSIFICATION_TYPE":"U","OBJECT_NAME":"STARLINK-1938","TLE_LINE1":"1 47551U 21009D   22049.68466792  .00000620  00000-0  60544-4 0  9990","APOAPSIS":"548.168","COUNTRY_CODE":"US","NORAD_CAT_ID":"47551","ECCENTRICITY":"0.00013810","EPHEMERIS_TYPE":"0","DECAY_DATE":null,"ARG_OF_PERICENTER":"62.0155","PERIAPSIS":"546.255","ELEMENT_SET_NO":"999","LAUNCH_DATE":"2021-02-04","MEAN_MOTION_DDOT":"0.0000000000000","TIME_SYSTEM":"UTC"}];
